{"type": "FeatureCollection", "features": [ {"type": "Feature", "properties": {"norad_id": 66899, "name": "STARLINK-36064", "group": "last-30-days", "lat": 51.49108228616009, "lon": 124.70041326085534, "alt_km": 364.9037178929093, "timestamp": "2025-12-24T11:32:58.720184+00:00", "meta": {"OBJECT_NAME": "STARLINK-36064", "OBJECT_ID": "2025-283X", "EPOCH": "2025-12-24T04:00:01.998720", "MEAN_MOTION": 15.66562535, "ECCENTRICITY": 0.0001472, "INCLINATION": 53.1598, "RA_OF_ASC_NODE": 16.6743, "ARG_OF_PERICENTER": 81.4383, "MEAN_ANOMALY": 46.4313, "EPHEMERIS_TYPE": 0, "CLASSIFICATION_TYPE": "U", "NORAD_CAT_ID": 66899, "ELEMENT_SET_NO": 999, "REV_AT_EPOCH": 420, "BSTAR": -0.02145, "MEAN_MOTION_DOT": -0.02010698, "MEAN_MOTION_DDOT": 0}, "tle": {"line1": "1 66899U 25283X   25358.16668980 -.02010698  00000+0 -21450-1 0  9995", "line2": "2 66899  53.1598  16.6743 0001472  81.4383  46.4313 15.66562535  4200"}}, "geometry": {"type": "Point", "coordinates": [124.70041326085534, 51.49108228616009]}}, {"type": "Feature", "properties": {"norad_id": 66900, "name": "STARLINK-36074", "group": "last-30-days", "lat": 50.93878990373835, "lon": 127.635760099223, "alt_km": 365.0126704075474, "timestamp": "2025-12-24T11:32:58.720195+00:00", "meta": {"OBJECT_NAME": "STARLINK-36074", "OBJECT_ID": "2025-283Y", "EPOCH": "2025-12-24T04:00:01.998720", "MEAN_MOTION": 15.66558158, "ECCENTRICITY": 0.0001457, "INCLINATION": 53.1597, "RA_OF_ASC_NODE": 16.6701, "ARG_OF_PERICENTER": 80.5883, "MEAN_ANOMALY": 49.2037, "EPHEMERIS_TYPE": 0, "CLASSIFICATION_TYPE": "U", "NORAD_CAT_ID": 66900, "ELEMENT_SET_NO": 999, "REV_AT_EPOCH": 426, "BSTAR": -0.021426, "MEAN_MOTION_DOT": -0.02008377, "MEAN_MOTION_DDOT": 0}, "tle": {"line1": "1 66900U 25283Y   25358.16668980 -.02008377  00000+0 -21426-1 0  9992", "line2": "2 66900  53.1597  16.6701 0001457  80.5883  49.2037 15.66558158  4260"}}, "geometry": {"type": "Point", "coordinates": [127.635760099223, 50.93878990373835]}}, {"type": "Feature", "properties": {"norad_id": 66901, "name": "STARLINK-36043", "group": "last-30-days", "lat": 50.315840608433014, "lon": 130.49284916528785, "alt_km": 365.14044956143243, "timestamp": "2025-12-24T11:32:58.720205+00:00", "meta": {"OBJECT_NAME": "STARLINK-36043", "OBJECT_ID": "2025-283Z", "EPOCH": "2025-12-24T04:00:01.998720", "MEAN_MOTION": 15.66560555, "ECCENTRICITY": 0.0001396, "INCLINATION": 53.1598, "RA_OF_ASC_NODE": 16.6659, "ARG_OF_PERICENTER": 81.3193, "MEAN_ANOMALY": 50.386, "EPHEMERIS_TYPE": 0, "CLASSIFICATION_TYPE": "U", "NORAD_CAT_ID": 66901, "ELEMENT_SET_NO": 999, "REV_AT_EPOCH": 426, "BSTAR": -0.021431, "MEAN_MOTION_DOT": -0.02008913, "MEAN_MOTION_DDOT": 0}, "tle": {"line1": "1 66901U 25283Z   25358.16668980 -.02008913  00000+0 -21431-1 0  9995", "line2": "2 66901  53.1598  16.6659 0001396  81.3193  50.3860 15.66560555  4260"}}, "geometry": {"type": "Point", "coordinates": [130.49284916528785, 50.315840608433014]}}, {"type": "Feature", "properties": {"norad_id": 66902, "name": "STARLINK-35983", "group": "last-30-days", "lat": 49.623508009998424, "lon": 133.2761075230439, "alt_km": 365.1734763010836, "timestamp": "2025-12-24T11:32:58.720215+00:00", "meta": {"OBJECT_NAME": "STARLINK-35983", "OBJECT_ID": "2025-283AA", "EPOCH": "2025-12-24T04:00:01.998720", "MEAN_MOTION": 15.66557733, "ECCENTRICITY": 0.0001543, "INCLINATION": 53.1598, "RA_OF_ASC_NODE": 16.6623, "ARG_OF_PERICENTER": 79.8762, "MEAN_ANOMALY": 53.7485, "EPHEMERIS_TYPE": 0, "CLASSIFICATION_TYPE": "U", "NORAD_CAT_ID": 66902, "ELEMENT_SET_NO": 999, "REV_AT_EPOCH": 426, "BSTAR": -0.021418, "MEAN_MOTION_DOT": -0.02007761, "MEAN_MOTION_DDOT": 0}, "tle": {"line1": "1 66902U 25283AA  25358.16668980 -.02007761  00000+0 -21418-1 0  9991", "line2": "2 66902  53.1598  16.6623 0001543  79.8762  53.7485 15.66557733  4264"}}, "geometry": {"type": "Point", "coordinates": [133.2761075230439, 49.623508009998424]}}, {"type": "Feature", "properties": {"norad_id": 66903, "name": "STARLINK-36077", "group": "last-30-days", "lat": 48.86700991235657, "lon": 135.97418348911853, "alt_km": 365.2965507081817, "timestamp": "2025-12-24T11:32:58.720225+00:00", "meta": {"OBJECT_NAME": "STARLINK-36077", "OBJECT_ID": "2025-283AB", "EPOCH": "2025-12-24T04:00:01.998720", "MEAN_MOTION": 15.66552485, "ECCENTRICITY": 0.0001518, "INCLINATION": 53.1596, "RA_OF_ASC_NODE": 16.6586, "ARG_OF_PERICENTER": 81.9574, "MEAN_ANOMALY": 53.5863, "EPHEMERIS_TYPE": 0, "CLASSIFICATION_TYPE": "U", "NORAD_CAT_ID": 66903, "ELEMENT_SET_NO": 999, "REV_AT_EPOCH": 426, "BSTAR": -0.021339, "MEAN_MOTION_DOT": -0.02000834, "MEAN_MOTION_DDOT": 0}, "tle": {"line1": "1 66903U 25283AB  25358.16668980 -.02000834  00000+0 -21339-1 0  9998", "line2": "2 66903  53.1596  16.6586 0001518  81.9574  53.5863 15.66552485  4265"}}, "geometry": {"type": "Point", "coordinates": [135.97418348911853, 48.86700991235657]}}, {"type": "Feature", "properties": {"norad_id": 66904, "name": "STARLINK-36059", "group": "last-30-days", "lat": 48.04839837712626, "lon": 138.5905286990721, "alt_km": 365.4823185643754, "timestamp": "2025-12-24T11:32:58.720235+00:00", "meta": {"OBJECT_NAME": "STARLINK-36059", "OBJECT_ID": "2025-283AC", "EPOCH": "2025-12-24T04:00:01.998720", "MEAN_MOTION": 15.66556497, "ECCENTRICITY": 0.0001435, "INCLINATION": 53.1595, "RA_OF_ASC_NODE": 16.6537, "ARG_OF_PERICENTER": 81.7847, "MEAN_ANOMALY": 55.6752, "EPHEMERIS_TYPE": 0, "CLASSIFICATION_TYPE": "U", "NORAD_CAT_ID": 66904, "ELEMENT_SET_NO": 999, "REV_AT_EPOCH": 426, "BSTAR": -0.021405, "MEAN_MOTION_DOT": -0.0200653, "MEAN_MOTION_DDOT": 0}, "tle": {"line1": "1 66904U 25283AC  25358.16668980 -.02006530  00000+0 -21405-1 0  9992", "line2": "2 66904  53.1595  16.6537 0001435  81.7847  55.6752 15.66556497  4267"}}, "geometry": {"type": "Point", "coordinates": [138.5905286990721, 48.04839837712626]}}, {"type": "Feature", "properties": {"norad_id": 66905, "name": "STARLINK-36075", "group": "last-30-days", "lat": 47.17315054021562, "lon": 141.1210373149794, "alt_km": 365.59636797980056, "timestamp": "2025-12-24T11:32:58.720248+00:00", "meta": {"OBJECT_NAME": "STARLINK-36075", "OBJECT_ID": "2025-283AD", "EPOCH": "2025-12-24T04:00:01.998720", "MEAN_MOTION": 15.66560553, "ECCENTRICITY": 0.0001465, "INCLINATION": 53.1596, "RA_OF_ASC_NODE": 16.6502, "ARG_OF_PERICENTER": 82.2784, "MEAN_ANOMALY": 57.0937, "EPHEMERIS_TYPE": 0, "CLASSIFICATION_TYPE": "U", "NORAD_CAT_ID": 66905, "ELEMENT_SET_NO": 999, "REV_AT_EPOCH": 426, "BSTAR": -0.021427, "MEAN_MOTION_DOT": -0.02008644, "MEAN_MOTION_DDOT": 0}, "tle": {"line1": "1 66905U 25283AD  25358.16668980 -.02008644  00000+0 -21427-1 0  9995", "line2": "2 66905  53.1596  16.6502 0001465  82.2784  57.0937 15.66560553  4269"}}, "geometry": {"type": "Point", "coordinates": [141.1210373149794, 47.17315054021562]}}, {"type": "Feature", "properties": {"norad_id": 66906, "name": "1998-067XS", "group": "last-30-days", "lat": 32.604353234385485, "lon": -126.28696816311907, "alt_km": 410.086602253361, "timestamp": "2025-12-24T11:32:58.720261+00:00", "meta": {"OBJECT_NAME": "1998-067XS", "OBJECT_ID": "1998-067XS", "EPOCH": "2025-12-23T13:19:00.111360", "MEAN_MOTION": 15.51136039, "ECCENTRICITY": 0.00028154, "INCLINATION": 51.6316, "RA_OF_ASC_NODE": 88.7613, "ARG_OF_PERICENTER": 256.8779, "MEAN_ANOMALY": 103.1896, "EPHEMERIS_TYPE": 0, "CLASSIFICATION_TYPE": "U", "NORAD_CAT_ID": 66906, "ELEMENT_SET_NO": 999, "REV_AT_EPOCH": 329, "BSTAR": 0.00048512679, "MEAN_MOTION_DOT": 0.0002847, "MEAN_MOTION_DDOT": 0}, "tle": {"line1": "1 66906U 98067XS  25357.55486240  .00028470  00000+0  48513-3 0  9997", "line2": "2 66906  51.6316  88.7613 0002815 256.8779 103.1896 15.51136039  3290"}}, "geometry": {"type": "Point", "coordinates": [-126.28696816311907, 32.604353234385485]}}, {"type": "Feature", "properties": {"norad_id": 66907, "name": "1998-067XT", "group": "last-30-days", "lat": -20.2167961105916, "lon": -79.02116887336213, "alt_km": 411.2370247532408, "timestamp": "2025-12-24T11:32:58.720271+00:00", "meta": {"OBJECT_NAME": "1998-067XT", "OBJECT_ID": "1998-067XT", "EPOCH": "2025-12-23T11:29:49.841376", "MEAN_MOTION": 15.52745506, "ECCENTRICITY": 0.0003882, "INCLINATION": 51.6313, "RA_OF_ASC_NODE": 89.0045, "ARG_OF_PERICENTER": 291.7662, "MEAN_ANOMALY": 68.2915, "EPHEMERIS_TYPE": 0, "CLASSIFICATION_TYPE": "U", "NORAD_CAT_ID": 66907, "ELEMENT_SET_NO": 999, "REV_AT_EPOCH": 328, "BSTAR": 0.0010348952, "MEAN_MOTION_DOT": 0.00065231, "MEAN_MOTION_DDOT": 0}, "tle": {"line1": "1 66907U 98067XT  25357.47904909  .00065231  00000+0  10349-2 0  9997", "line2": "2 66907  51.6313  89.0045 0003882 291.7662  68.2915 15.52745506  3283"}}, "geometry": {"type": "Point", "coordinates": [-79.02116887336213, -20.2167961105916]}}, {"type": "Feature", "properties": {"norad_id": 66908, "name": "1998-067XU", "group": "last-30-days", "lat": -24.55172040440201, "lon": -74.77882567449859, "alt_km": 410.957330876412, "timestamp": "2025-12-24T11:32:58.720282+00:00", "meta": {"OBJECT_NAME": "1998-067XU", "OBJECT_ID": "1998-067XU", "EPOCH": "2025-12-23T11:28:24.726144", "MEAN_MOTION": 15.52842233, "ECCENTRICITY": 0.00039209, "INCLINATION": 51.6312, "RA_OF_ASC_NODE": 88.9976, "ARG_OF_PERICENTER": 289.9814, "MEAN_ANOMALY": 70.0754, "EPHEMERIS_TYPE": 0, "CLASSIFICATION_TYPE": "U", "NORAD_CAT_ID": 66908, "ELEMENT_SET_NO": 999, "REV_AT_EPOCH": 328, "BSTAR": 0.0010206619, "MEAN_MOTION_DOT": 0.00064549, "MEAN_MOTION_DDOT": 0}, "tle": {"line1": "1 66908U 98067XU  25357.47806396  .00064549  00000+0  10207-2 0  9993", "line2": "2 66908  51.6312  88.9976 0003920 289.9814  70.0754 15.52842233  3282"}}, "geometry": {"type": "Point", "coordinates": [-74.77882567449859, -24.55172040440201]}}]}